{
  "norad_id": 28810,
  "name": "REIMEI (INDEX)",
  "history": [
    {
      "epoch": "2026-03-28T20:07:32.783232Z",
      "apogee_km": 549.9073174170917,
      "perigee_km": 521.9777548492912,
      "latitude_deg": 5.303178633333048e-05,
      "longitude_deg": 80.03542375207945,
      "height_km": 526.6567025573895,
      "semi_major_axis_km": 6914.079536133191,
      "eccentricity": 0.00201976,
      "inclination_deg": 98.0012,
      "raan_deg": 208.1753,
      "arg_perigee_deg": 28.0702,
      "mean_anomaly_deg": 332.1611,
      "mean_motion_rev_day": 15.10084345
    },
    {
      "epoch": "2026-03-28T21:42:57.875328Z",
      "apogee_km": 549.8976119886938,
      "perigee_km": 521.9827168450774,
      "latitude_deg": -2.8553500326889285e-06,
      "longitude_deg": 56.18476970044452,
      "height_km": 526.635796324912,
      "semi_major_axis_km": 6914.077164416885,
      "eccentricity": 0.0020187,
      "inclination_deg": 98.0013,
      "raan_deg": 208.2445,
      "arg_perigee_deg": 27.8494,
      "mean_anomaly_deg": 332.381,
      "mean_motion_rev_day": 15.10085122
    },
    {
      "epoch": "2026-03-29T21:34:13.706400Z",
      "apogee_km": 549.7591243116076,
      "perigee_km": 522.0172895712758,
      "latitude_deg": -4.736000272759236e-05,
      "longitude_deg": 58.42714824614002,
      "height_km": 526.2830285239665,
      "semi_major_axis_km": 6914.025206941441,
      "eccentricity": 0.0020062,
      "inclination_deg": 98.0013,
      "raan_deg": 209.2825,
      "arg_perigee_deg": 24.2714,
      "mean_anomaly_deg": 335.9454,
      "mean_motion_rev_day": 15.10102144
    }
  ]
}